IRIDIUM 166             
1 43570U 18061B   24255.61066288  .00000913  00000+0  31900-3 0  9998
2 43570  86.3997 325.7069 0001982  97.6032 262.5388 14.34214580321150
IRIDIUM 158             
1 43571U 18061C   24255.71850029  .00000774  00000+0  26923-3 0  9998
2 43571  86.3997 325.6711 0002061  99.1843 260.9586 14.34218065321143
IRIDIUM 165             
1 43572U 18061D   24255.74386650 -.00000096  00000+0 -41236-4 0  9990
2 43572  86.3999 325.6948 0002073 101.3335 258.8094 14.34219896321168
IRIDIUM 155             
1 43573U 18061E   24255.56627688  .00000238  00000+0  78037-4 0  9995
2 43573  86.3996 325.6699 0001957  96.1956 263.9462 14.34218925321101
IRIDIUM 154             
1 43574U 18061F   24255.61701932  .00000460  00000+0  15719-3 0  9991
2 43574  86.4000 325.7504 0002259  89.9510 270.1945 14.34216558321169
IRIDIUM 163             
1 43575U 18061G   24255.66776010  .00000255  00000+0  83978-4 0  9991
2 43575  86.3996 325.6649 0002087  93.0396 267.1039 14.34217965321140
IRIDIUM 156             
1 43576U 18061H   24255.71215593  .00000813  00000+0  28318-3 0  9998
2 43576  86.4017 325.6528 0002334 101.3505 258.7953 14.34206894321131
IRIDIUM 164             
1 43577U 18061J   24255.55359428  .00000200  00000+0  64352-4 0  9996
2 43577  86.3998 325.7492 0002348  94.7775 265.3689 14.34217298321162
